AMC-3                   
1 24936U 97050A   26062.99627912 -.00000271  00000+0  00000+0 0  9995
2 24936   7.8887  65.2783 0003483 287.8217  95.3034  1.00271818 51387
NSS-11                  
1 26554U 00059A   26063.56989014  .00000014  00000+0  00000+0 0  9998
2 26554   1.8564  82.6704 0003177 266.8811 193.9144  1.00272084 40240
AMC-6                   
1 26580U 00067A   26063.49975577  .00000077  00000+0  00000+0 0  9996
2 26580   0.0537 321.9338 0003115  25.4731 219.6781  1.00272142 92845
AMC-11                  
1 28252U 04017A   26063.36225455 -.00000061  00000+0  00000+0 0  9996
2 28252   0.0412  79.2251 0003228 269.5377 192.6488  1.00272404 79811
AMC-15                  
1 28446U 04041A   26063.35669706 -.00000101  00000+0  00000+0 0  9993
2 28446   0.0549 296.4935 0002846  26.2504 222.7070  1.00275185 78252
NSS-10                  
1 28526U 05003A   26063.45322368 -.00000260  00000+0  00000+0 0  9998
2 28526   6.1878  71.7201 0003261 277.1631 299.0193  1.00271252 52103
ASTRA 1KR               
1 29055U 06012A   26063.74143868  .00000109  00000+0  00000+0 0  9996
2 29055   0.2047  81.8471 0003370 246.3500 120.1964  1.00272440 44649
ASTRA 1L                
1 31306U 07016A   26063.44766875 -.00000195  00000+0  00000+0 0  9995
2 31306   1.0510  82.4229 0003330 275.5343 300.9405  1.00271256 43931
ASTRA 4A                
1 32299U 07057A   26063.37683795  .00000021  00000+0  00000+0 0  9990
2 32299   0.0532 293.7743 0002460  53.9532 314.8680  1.00273699 50597
ASTRA 1M                
1 33436U 08057A   26063.74254911  .00000110  00000+0  00000+0 0  9999
2 33436   0.0356  61.4724 0000873  11.6234  15.8987  1.00274143 44686
NSS-9                   
1 33749U 09008A   26063.61780826  .00000061  00000+0  00000+0 0  9993
2 33749   0.9913  83.7021 0002160 254.7826 229.3478  1.00273151 62478
SES-7 (PROTOSTAR 2)     
1 34941U 09027A   26063.81375032 -.00000355  00000+0  00000+0 0  9997
2 34941   0.0203 102.4040 0001530 202.6705 258.6817  1.00271449 61585
NSS-12                  
1 36032U 09058A   26063.64903255  .00000061  00000+0  00000+0 0  9992
2 36032   0.0253 288.9231 0004987  39.9414 124.1649  1.00272641 59876
SES-1                   
1 36516U 10016A   26063.35669706 -.00000126  00000+0  00000+0 0  9996
2 36516   0.0527 293.3926 0002540  41.3306 214.7851  1.00272468 57986
ASTRA 3B                
1 36581U 10021A   26063.84625951  .00000127  00000+0  00000+0 0  9992
2 36581   1.1985  84.9229 0003084 280.2604 125.5464  1.00271908 57827
SES-3                   
1 37748U 11035A   26063.35669706 -.00000113  00000+0  00000+0 0  9992
2 37748   1.0557  84.3067 0003575 265.2485 197.9476  1.00272185 53545
ASTRA 1N                
1 37775U 11041A   26063.74255006  .00000110  00000+0  00000+0 0  9992
2 37775   0.0693  21.2325 0004130 357.7444  70.0217  1.00274172 43486
