[{"OBJECT_NAME":"AMC-3","OBJECT_ID":"1997-050A","EPOCH":"2026-03-03T23:54:38.515968","MEAN_MOTION":1.00271818,"ECCENTRICITY":0.00034833,"INCLINATION":7.8887,"RA_OF_ASC_NODE":65.2783,"ARG_OF_PERICENTER":287.8217,"MEAN_ANOMALY":95.3034,"EPHEMERIS_TYPE":0,"CLASSIFICATION_TYPE":"U","NORAD_CAT_ID":24936,"ELEMENT_SET_NO":999,"REV_AT_EPOCH":5138,"BSTAR":0,"MEAN_MOTION_DOT":-2.71e-6,"MEAN_MOTION_DDOT":0},{"OBJECT_NAME":"NSS-11","OBJECT_ID":"2000-059A","EPOCH":"2026-03-04T13:40:38.508096","MEAN_MOTION":1.00272084,"ECCENTRICITY":0.0003177,"INCLINATION":1.8564,"RA_OF_ASC_NODE":82.6704,"ARG_OF_PERICENTER":266.8811,"MEAN_ANOMALY":193.9144,"EPHEMERIS_TYPE":0,"CLASSIFICATION_TYPE":"U","NORAD_CAT_ID":26554,"ELEMENT_SET_NO":999,"REV_AT_EPOCH":4024,"BSTAR":0,"MEAN_MOTION_DOT":1.4e-7,"MEAN_MOTION_DDOT":0},{"OBJECT_NAME":"AMC-6","OBJECT_ID":"2000-067A","EPOCH":"2026-03-04T11:59:38.898528","MEAN_MOTION":1.00272142,"ECCENTRICITY":0.0003115,"INCLINATION":0.0537,"RA_OF_ASC_NODE":321.9338,"ARG_OF_PERICENTER":25.4731,"MEAN_ANOMALY":219.6781,"EPHEMERIS_TYPE":0,"CLASSIFICATION_TYPE":"U","NORAD_CAT_ID":26580,"ELEMENT_SET_NO":999,"REV_AT_EPOCH":9284,"BSTAR":0,"MEAN_MOTION_DOT":7.7e-7,"MEAN_MOTION_DDOT":0},{"OBJECT_NAME":"AMC-11","OBJECT_ID":"2004-017A","EPOCH":"2026-03-04T08:41:38.793120","MEAN_MOTION":1.00272404,"ECCENTRICITY":0.00032285,"INCLINATION":0.0412,"RA_OF_ASC_NODE":79.2251,"ARG_OF_PERICENTER":269.5377,"MEAN_ANOMALY":192.6488,"EPHEMERIS_TYPE":0,"CLASSIFICATION_TYPE":"U","NORAD_CAT_ID":28252,"ELEMENT_SET_NO":999,"REV_AT_EPOCH":7981,"BSTAR":0,"MEAN_MOTION_DOT":-6.1e-7,"MEAN_MOTION_DDOT":0},{"OBJECT_NAME":"AMC-15","OBJECT_ID":"2004-041A","EPOCH":"2026-03-04T08:33:38.625984","MEAN_MOTION":1.00275185,"ECCENTRICITY":0.00028465,"INCLINATION":0.0549,"RA_OF_ASC_NODE":296.4935,"ARG_OF_PERICENTER":26.2504,"MEAN_ANOMALY":222.707,"EPHEMERIS_TYPE":0,"CLASSIFICATION_TYPE":"U","NORAD_CAT_ID":28446,"ELEMENT_SET_NO":999,"REV_AT_EPOCH":7825,"BSTAR":0,"MEAN_MOTION_DOT":-1.01e-6,"MEAN_MOTION_DDOT":0},{"OBJECT_NAME":"NSS-10","OBJECT_ID":"2005-003A","EPOCH":"2026-03-04T10:52:38.525952","MEAN_MOTION":1.00271252,"ECCENTRICITY":0.0003261,"INCLINATION":6.1878,"RA_OF_ASC_NODE":71.7201,"ARG_OF_PERICENTER":277.1631,"MEAN_ANOMALY":299.0193,"EPHEMERIS_TYPE":0,"CLASSIFICATION_TYPE":"U","NORAD_CAT_ID":28526,"ELEMENT_SET_NO":999,"REV_AT_EPOCH":5210,"BSTAR":0,"MEAN_MOTION_DOT":-2.6e-6,"MEAN_MOTION_DDOT":0},{"OBJECT_NAME":"ASTRA 1KR","OBJECT_ID":"2006-012A","EPOCH":"2026-03-04T17:47:40.301952","MEAN_MOTION":1.0027244,"ECCENTRICITY":0.000337,"INCLINATION":0.2047,"RA_OF_ASC_NODE":81.8471,"ARG_OF_PERICENTER":246.35,"MEAN_ANOMALY":120.1964,"EPHEMERIS_TYPE":0,"CLASSIFICATION_TYPE":"U","NORAD_CAT_ID":29055,"ELEMENT_SET_NO":999,"REV_AT_EPOCH":4464,"BSTAR":0,"MEAN_MOTION_DOT":1.09e-6,"MEAN_MOTION_DDOT":0},{"OBJECT_NAME":"ASTRA 1L","OBJECT_ID":"2007-016A","EPOCH":"2026-03-04T10:44:38.580000","MEAN_MOTION":1.00271256,"ECCENTRICITY":0.000333,"INCLINATION":1.051,"RA_OF_ASC_NODE":82.4229,"ARG_OF_PERICENTER":275.5343,"MEAN_ANOMALY":300.9405,"EPHEMERIS_TYPE":0,"CLASSIFICATION_TYPE":"U","NORAD_CAT_ID":31306,"ELEMENT_SET_NO":999,"REV_AT_EPOCH":4393,"BSTAR":0,"MEAN_MOTION_DOT":-1.95e-6,"MEAN_MOTION_DDOT":0},{"OBJECT_NAME":"ASTRA 4A","OBJECT_ID":"2007-057A","EPOCH":"2026-03-04T09:02:38.798880","MEAN_MOTION":1.00273699,"ECCENTRICITY":0.00024603,"INCLINATION":0.0532,"RA_OF_ASC_NODE":293.7743,"ARG_OF_PERICENTER":53.9532,"MEAN_ANOMALY":314.868,"EPHEMERIS_TYPE":0,"CLASSIFICATION_TYPE":"U","NORAD_CAT_ID":32299,"ELEMENT_SET_NO":999,"REV_AT_EPOCH":5059,"BSTAR":0,"MEAN_MOTION_DOT":2.1e-7,"MEAN_MOTION_DDOT":0},{"OBJECT_NAME":"ASTRA 1M","OBJECT_ID":"2008-057A","EPOCH":"2026-03-04T17:49:16.243104","MEAN_MOTION":1.00274143,"ECCENTRICITY":8.73e-5,"INCLINATION":0.0356,"RA_OF_ASC_NODE":61.4724,"ARG_OF_PERICENTER":11.6234,"MEAN_ANOMALY":15.8987,"EPHEMERIS_TYPE":0,"CLASSIFICATION_TYPE":"U","NORAD_CAT_ID":33436,"ELEMENT_SET_NO":999,"REV_AT_EPOCH":4468,"BSTAR":0,"MEAN_MOTION_DOT":1.1e-6,"MEAN_MOTION_DDOT":0},{"OBJECT_NAME":"NSS-9","OBJECT_ID":"2009-008A","EPOCH":"2026-03-04T14:49:38.633664","MEAN_MOTION":1.00273151,"ECCENTRICITY":0.000216,"INCLINATION":0.9913,"RA_OF_ASC_NODE":83.7021,"ARG_OF_PERICENTER":254.7826,"MEAN_ANOMALY":229.3478,"EPHEMERIS_TYPE":0,"CLASSIFICATION_TYPE":"U","NORAD_CAT_ID":33749,"ELEMENT_SET_NO":999,"REV_AT_EPOCH":6247,"BSTAR":0,"MEAN_MOTION_DOT":6.1e-7,"MEAN_MOTION_DDOT":0},{"OBJECT_NAME":"SES-7 (PROTOSTAR 2)","OBJECT_ID":"2009-027A","EPOCH":"2026-03-04T19:31:48.027648","MEAN_MOTION":1.00271449,"ECCENTRICITY":0.000153,"INCLINATION":0.0203,"RA_OF_ASC_NODE":102.404,"ARG_OF_PERICENTER":202.6705,"MEAN_ANOMALY":258.6817,"EPHEMERIS_TYPE":0,"CLASSIFICATION_TYPE":"U","NORAD_CAT_ID":34941,"ELEMENT_SET_NO":999,"REV_AT_EPOCH":6158,"BSTAR":0,"MEAN_MOTION_DOT":-3.55e-6,"MEAN_MOTION_DDOT":0},{"OBJECT_NAME":"NSS-12","OBJECT_ID":"2009-058A","EPOCH":"2026-03-04T15:34:36.412320","MEAN_MOTION":1.00272641,"ECCENTRICITY":0.0004987,"INCLINATION":0.0253,"RA_OF_ASC_NODE":288.9231,"ARG_OF_PERICENTER":39.9414,"MEAN_ANOMALY":124.1649,"EPHEMERIS_TYPE":0,"CLASSIFICATION_TYPE":"U","NORAD_CAT_ID":36032,"ELEMENT_SET_NO":999,"REV_AT_EPOCH":5987,"BSTAR":0,"MEAN_MOTION_DOT":6.1e-7,"MEAN_MOTION_DDOT":0},{"OBJECT_NAME":"SES-1","OBJECT_ID":"2010-016A","EPOCH":"2026-03-04T08:33:38.625984","MEAN_MOTION":1.00272468,"ECCENTRICITY":0.00025404,"INCLINATION":0.0527,"RA_OF_ASC_NODE":293.3926,"ARG_OF_PERICENTER":41.3306,"MEAN_ANOMALY":214.7851,"EPHEMERIS_TYPE":0,"CLASSIFICATION_TYPE":"U","NORAD_CAT_ID":36516,"ELEMENT_SET_NO":999,"REV_AT_EPOCH":5798,"BSTAR":0,"MEAN_MOTION_DOT":-1.26e-6,"MEAN_MOTION_DDOT":0},{"OBJECT_NAME":"ASTRA 3B","OBJECT_ID":"2010-021A","EPOCH":"2026-03-04T20:18:36.821664","MEAN_MOTION":1.00271908,"ECCENTRICITY":0.0003084,"INCLINATION":1.1985,"RA_OF_ASC_NODE":84.9229,"ARG_OF_PERICENTER":280.2604,"MEAN_ANOMALY":125.5464,"EPHEMERIS_TYPE":0,"CLASSIFICATION_TYPE":"U","NORAD_CAT_ID":36581,"ELEMENT_SET_NO":999,"REV_AT_EPOCH":5782,"BSTAR":0,"MEAN_MOTION_DOT":1.27e-6,"MEAN_MOTION_DDOT":0},{"OBJECT_NAME":"SES-3","OBJECT_ID":"2011-035A","EPOCH":"2026-03-04T08:33:38.625984","MEAN_MOTION":1.00272185,"ECCENTRICITY":0.00035757,"INCLINATION":1.0557,"RA_OF_ASC_NODE":84.3067,"ARG_OF_PERICENTER":265.2485,"MEAN_ANOMALY":197.9476,"EPHEMERIS_TYPE":0,"CLASSIFICATION_TYPE":"U","NORAD_CAT_ID":37748,"ELEMENT_SET_NO":999,"REV_AT_EPOCH":5354,"BSTAR":0,"MEAN_MOTION_DOT":-1.13e-6,"MEAN_MOTION_DDOT":0},{"OBJECT_NAME":"ASTRA 1N","OBJECT_ID":"2011-041A","EPOCH":"2026-03-04T17:49:16.325184","MEAN_MOTION":1.00274172,"ECCENTRICITY":0.000413,"INCLINATION":0.0693,"RA_OF_ASC_NODE":21.2325,"ARG_OF_PERICENTER":357.7444,"MEAN_ANOMALY":70.0217,"EPHEMERIS_TYPE":0,"CLASSIFICATION_TYPE":"U","NORAD_CAT_ID":37775,"ELEMENT_SET_NO":999,"REV_AT_EPOCH":4348,"BSTAR":0,"MEAN_MOTION_DOT":1.1e-6,"MEAN_MOTION_DDOT":0}]
